H1 CPF 01  gfz 2021 01 01 01  5011 tandemx   
H2 1003001  6202 36605    2021 01 01 00 59 42 2021 01 06 00 00 42   120 1 1  0 0 0
H9
10 0 59219  55422.000000  0    2279809.725    782630.332   6442279.402
10 0 59219  55542.000000  0    1621261.486    185532.695   6681546.626
10 0 59219  55662.000000  0     924050.371   -402939.938   6803394.700
10 0 59219  55782.000000  0     200590.422   -971950.887   6805698.002
10 0 59219  55902.000000  0    -536065.685  -1511226.656   6688418.254
10 0 59219  56022.000000  0   -1272461.995  -2011242.294   6453604.379
10 0 59219  56142.000000  0   -1994983.704  -2463389.418   6105357.259
10 0 59219  56262.000000  0   -2690106.513  -2860124.363   5649763.544
10 0 59219  56382.000000  0   -3344651.542  -3195097.396   5094797.922
10 0 59219  56502.000000  0   -3946040.462  -3463258.030   4450188.546
10 0 59219  56622.000000  0   -4482541.549  -3660933.509   3727249.926
10 0 59219  56742.000000  0   -4943503.580  -3785879.910   2938687.315
10 0 59219  56862.000000  0   -5319573.433  -3837305.108   2098374.908
10 0 59219  56982.000000  0   -5602892.247  -3815862.686   1221108.777
10 0 59219  57102.000000  0   -5787263.193  -3723614.965    322340.286
10 0 59219  57222.000000  0   -5868287.527  -3563966.894   -582103.617
10 0 59219  57342.000000  0   -5843465.232  -3341572.697  -1476308.418
10 0 59219  57462.000000  0   -5712256.003  -3062216.291  -2344562.071
10 0 59219  57582.000000  0   -5476099.691  -2732669.740  -3171637.506
10 0 59219  57702.000000  0   -5138397.782  -2360534.440  -3943063.409
10 0 59219  57822.000000  0   -4704456.312  -1954068.495  -4645377.439
10 0 59219  57942.000000  0   -4181392.710  -1522005.480  -5266357.854
10 0 59219  58062.000000  0   -3578008.758  -1073368.132  -5795229.758
10 0 59219  58182.000000  0   -2904633.465   -617281.481  -6222842.022
10 0 59219  58302.000000  0   -2172940.269   -162789.859  -6541814.156
10 0 59219  58422.000000  0   -1395741.315    281318.544  -6746652.068
10 0 59219  58542.000000  0    -586764.103    706676.381  -6833831.631
10 0 59219  58662.000000  0     239586.102   1105490.579  -6801852.559
10 0 59219  58782.000000  0    1068475.523   1470680.672  -6651261.434
10 0 59219  58902.000000  0    1884902.117   1796001.676  -6384646.048
10 0 59219  59022.000000  0    2673961.841   2076150.023  -6006595.581
10 0 59219  59142.000000  0    3421116.973   2306849.658  -5523629.289
10 0 59219  59262.000000  0    4112461.110   2484917.535  -4944094.603
10 0 59219  59382.000000  0    4734980.057   2608308.357  -4278035.198
10 0 59219  59502.000000  0    5276802.258   2676136.563  -3537026.850
10 0 59219  59622.000000  0    5727431.913   2688674.891  -2733984.516
10 0 59219  59742.000000  0    6077962.550   2647329.880  -1882943.781
10 0 59219  59862.000000  0    6321263.514   2554593.218   -998815.774
10 0 59219  59982.000000  0    6452133.662   2413970.033    -97123.786
10 0 59219  60102.000000  0    6467418.711   2229885.290    806276.023
10 0 59219  60222.000000  0    6366086.495   2007570.216   1695480.110
10 0 59219  60342.000000  0    6149263.213   1752933.848   2554825.761
10 0 59219  60462.000000  0    5820224.051   1472419.605   3369176.688
10 0 59219  60582.000000  0    5384340.333   1172852.510   4124196.953
10 0 59219  60702.000000  0    4848983.620    861280.637   4806607.860
10 0 59219  60822.000000  0    4223392.648    544815.712   5404422.114
10 0 59219  60942.000000  0    3518504.236    230475.076   5907154.049
10 0 59219  61062.000000  0    2746751.788    -74970.076   6305998.713
10 0 59219  61182.000000  0    1921839.848   -365136.171   6593979.297
10 0 59219  61302.000000  0    1058497.000   -634157.589   6766064.210
10 0 59219  61422.000000  0     172209.520   -876803.590   6819250.506
10 0 59219  61542.000000  0    -721057.376  -1088578.756   6752611.772
10 0 59219  61662.000000  0   -1605146.352  -1265806.229   6567312.436
10 0 59219  61782.000000  0   -2463998.730  -1405691.422   6266587.607
10 0 59219  61902.000000  0   -3281944.229  -1506365.239   5855690.771
10 0 59219  62022.000000  0   -4043989.375  -1566907.817   5341809.996
10 0 59219  62142.000000  0   -4736097.807  -1587352.472   4733948.005
10 0 59219  62262.000000  0   -5345455.934  -1568668.153   4042769.188
10 0 59219  62382.000000  0   -5860717.929  -1512720.591   3280415.126
10 0 59219  62502.000000  0   -6272225.082  -1422213.258   2460293.332
10 0 59219  62622.000000  0   -6572197.332  -1300610.306   1596841.738
10 0 59219  62742.000000  0   -6754890.154  -1152042.191    705268.845
10 0 59219  62862.000000  0   -6816709.520   -981195.821   -198721.970
10 0 59219  62982.000000  0   -6756284.174   -793192.575  -1099217.840
10 0 59219  63102.000000  0   -6574492.675   -593457.330  -1980385.623
10 0 59219  63222.000000  0   -6274445.212   -387582.159  -2826756.987
10 0 59219  63342.000000  0   -5861422.685   -181188.842  -3623505.903
10 0 59219  63462.000000  0   -5342771.287     20208.356  -4356711.563
10 0 59219  63582.000000  0   -4727758.131    211334.851  -5013599.427
10 0 59219  63702.000000  0   -4027393.356    387280.011  -5582758.180
10 0 59219  63822.000000  0   -3254221.892    543610.001  -6054329.380
10 0 59219  63942.000000  0   -2422090.744    676467.184  -6420166.131
10 0 59219  64062.000000  0   -1545898.517    782654.913  -6673961.966
10 0 59219  64182.000000  0    -641328.805    859706.447  -6811349.221
10 0 59219  64302.000000  0     275426.017    905936.854  -6829964.473
10 0 59219  64422.000000  0    1187946.226    920476.705  -6729485.265
10 0 59219  64542.000000  0    2079872.455    903287.820  -6511637.685
10 0 59219  64662.000000  0    2935193.265    855160.913  -6180169.764
10 0 59219  64782.000000  0    3738528.229    777694.978  -5740793.154
10 0 59219  64902.000000  0    4475401.691    673257.914  -5201094.289
10 0 59219  65022.000000  0    5132505.391    544929.782  -4570415.403
10 0 59219  65142.000000  0    5697945.254    396429.519  -3859703.791
10 0 59219  65262.000000  0    6161465.417    232025.546  -3081330.913
10 0 59219  65382.000000  0    6514645.659     56432.657  -2248884.595
10 0 59219  65502.000000  0    6751068.295   -125303.336  -1376935.041
10 0 59219  65622.000000  0    6866446.835   -307930.141   -480778.201
10 0 59219  65742.000000  0    6858713.733   -486119.462    423836.439
10 0 59219  65862.000000  0    6728065.313   -654601.200   1320989.557
10 0 59219  65982.000000  0    6476960.879   -808297.164   2194880.673
10 0 59219  66102.000000  0    6110076.066   -942450.935   3030116.525
10 0 59219  66222.000000  0    5634209.645  -1052750.226   3811989.820
10 0 59219  66342.000000  0    5058150.673  -1135438.911   4526743.191
10 0 59219  66462.000000  0    4392506.346  -1187416.690   5161814.441
10 0 59219  66582.000000  0    3649496.335  -1206321.842   5706056.630
10 0 59219  66702.000000  0    2842719.271  -1190596.890   6149930.842
10 0 59219  66822.000000  0    1986896.261  -1139536.358   6485667.908
10 0 59219  66942.000000  0    1097597.629  -1053315.366   6707399.145
10 0 59219  67062.000000  0     190955.611   -932997.970   6811253.498
10 0 59219  67182.000000  0    -716629.379   -780525.293   6795419.586
10 0 59219  67302.000000  0   -1608784.277   -598684.388   6660174.362
10 0 59219  67422.000000  0   -2469457.238   -391057.459   6407878.350
10 0 59219  67542.000000  0   -3283205.344   -161952.479   6042937.758
10 0 59219  67662.000000  0   -4035473.317     83683.746   5571733.360
10 0 59219  67782.000000  0   -4712858.489    340368.659   5002515.116
10 0 59219  67902.000000  0   -5303356.277    602201.150   4345263.355
10 0 59219  68022.000000  0   -5796581.617    862991.185   3611517.866
10 0 59219  68142.000000  0   -6183960.349   1116399.087   2814177.743
10 0 59219  68262.000000  0   -6458888.090   1356081.456   1967274.799
10 0 59219  68382.000000  0   -6616851.596   1575839.786   1085723.692
10 0 59219  68502.000000  0   -6655509.864   1769768.913    185052.995
10 0 59219  68622.000000  0   -6574730.345   1932400.935   -718877.279
10 0 59219  68742.000000  0   -6376580.096   2058840.249  -1610163.875
10 0 59219  68862.000000  0   -6065273.556   2144887.311  -2473147.991
10 0 59219  68982.000000  0   -5647077.370   2187148.135  -3292698.050
10 0 59219  69102.000000  0   -5130173.885   2183125.641  -4054479.432
10 0 59219  69222.000000  0   -4524489.267   2131290.902  -4745204.792
10 0 59219  69342.000000  0   -3841491.410   2031133.626  -5352861.242
10 0 59219  69462.000000  0   -3093963.518   1883191.256  -5866910.650
10 0 59219  69582.000000  0   -2295759.296   1689056.423  -6278462.335
10 0 59219  69702.000000  0   -1461542.338   1451362.598  -6580416.276
10 0 59219  69822.000000  0    -606516.680   1173748.379  -6767573.044
10 0 59219  69942.000000  0     253845.800    860801.586  -6836713.186
10 0 59219  70062.000000  0    1104077.632    517984.962  -6786646.838
10 0 59219  70182.000000  0    1928988.086    151542.774  -6618234.099
10 0 59219  70302.000000  0    2713928.656   -231610.141  -6334370.913
10 0 59219  70422.000000  0    3445048.671   -624014.627  -5939945.244
10 0 59219  70542.000000  0    4109537.246  -1017807.762  -5441760.430
10 0 59219  70662.000000  0    4695848.392  -1404875.369  -4848429.790
10 0 59219  70782.000000  0    5193907.367  -1777015.620  -4170239.499
10 0 59219  70902.000000  0    5595291.968  -2126109.080  -3418980.593
10 0 59219  71022.000000  0    5893385.573  -2444292.265  -2607752.000
10 0 59219  71142.000000  0    6083497.431  -2724131.109  -1750736.423
10 0 59219  71262.000000  0    6162946.341  -2958789.769   -862953.221
10 0 59219  71382.000000  0    6131106.083  -3142190.825     40007.209
10 0 59219  71502.000000  0    5989409.935  -3269162.661    942262.852
10 0 59219  71622.000000  0    5741314.826  -3335570.272   1827927.680
10 0 59219  71742.000000  0    5392222.201  -3338424.800   2681401.692
10 0 59219  71862.000000  0    4949359.900  -3275969.668   3487653.456
99
